{
  "type": "FeatureCollection",
  "features": [
    {
      "type": "Feature",
      "properties": {
        "OBJECT_NAME": "ONEWEB-0267",
        "OBJECT_ID": "2021-060U",
        "EPOCH": "2025-11-30T02:30:48.523392",
        "MEAN_MOTION": 13.16595915,
        "ECCENTRICITY": 0.0002067,
        "INCLINATION": 87.9032,
        "RA_OF_ASC_NODE": 268.4155,
        "ARG_OF_PERICENTER": 77.9798,
        "MEAN_ANOMALY": 282.1564,
        "EPHEMERIS_TYPE": 0,
        "CLASSIFICATION_TYPE": "U",
        "NORAD_CAT_ID": 48985,
        "ELEMENT_SET_NO": 999,
        "REV_AT_EPOCH": 21339,
        "BSTAR": -0.000113,
        "MEAN_MOTION_DOT": -3e-07,
        "MEAN_MOTION_DDOT": 0,
        "norad_id": 48985,
        "name": "ONEWEB-0267",
        "group": "active",
        "longitude_deg": NaN,
        "latitude_deg": NaN,
        "alt_km": NaN,
        "orbit_class": "HEO",
        "timestamp": "2025-11-30T09:33:02.518215+00:00"
      },
      "geometry": {
        "type": "Point",
        "coordinates": [
          NaN,
          NaN
        ]
      }
    },
    {
      "type": "Feature",
      "properties": {
        "OBJECT_NAME": "ONEWEB-0268",
        "OBJECT_ID": "2021-060V",
        "EPOCH": "2025-11-29T20:16:54.441120",
        "MEAN_MOTION": 13.16594961,
        "ECCENTRICITY": 0.0001852,
        "INCLINATION": 87.9035,
        "RA_OF_ASC_NODE": 268.4757,
        "ARG_OF_PERICENTER": 78.5493,
        "MEAN_ANOMALY": 281.5845,
        "EPHEMERIS_TYPE": 0,
        "CLASSIFICATION_TYPE": "U",
        "NORAD_CAT_ID": 48986,
        "ELEMENT_SET_NO": 999,
        "REV_AT_EPOCH": 21362,
        "BSTAR": -3.597e-05,
        "MEAN_MOTION_DOT": -1e-08,
        "MEAN_MOTION_DDOT": 0,
        "norad_id": 48986,
        "name": "ONEWEB-0268",
        "group": "active",
        "longitude_deg": NaN,
        "latitude_deg": NaN,
        "alt_km": NaN,
        "orbit_class": "HEO",
        "timestamp": "2025-11-30T09:33:02.518221+00:00"
      },
      "geometry": {
        "type": "Point",
        "coordinates": [
          NaN,
          NaN
        ]
      }
    },
    {
      "type": "Feature",
      "properties": {
        "OBJECT_NAME": "ONEWEB-0269",
        "OBJECT_ID": "2021-060W",
        "EPOCH": "2025-11-30T01:17:51.274752",
        "MEAN_MOTION": 13.16596078,
        "ECCENTRICITY": 0.0001721,
        "INCLINATION": 87.9026,
        "RA_OF_ASC_NODE": 268.457,
        "ARG_OF_PERICENTER": 80.9455,
        "MEAN_ANOMALY": 279.187,
        "EPHEMERIS_TYPE": 0,
        "CLASSIFICATION_TYPE": "U",
        "NORAD_CAT_ID": 48987,
        "ELEMENT_SET_NO": 999,
        "REV_AT_EPOCH": 21342,
        "BSTAR": 0.00026305,
        "MEAN_MOTION_DOT": 1.13e-06,
        "MEAN_MOTION_DDOT": 0,
        "norad_id": 48987,
        "name": "ONEWEB-0269",
        "group": "active",
        "longitude_deg": NaN,
        "latitude_deg": NaN,
        "alt_km": NaN,
        "orbit_class": "HEO",
        "timestamp": "2025-11-30T09:33:02.518227+00:00"
      },
      "geometry": {
        "type": "Point",
        "coordinates": [
          NaN,
          NaN
        ]
      }
    },
    {
      "type": "Feature",
      "properties": {
        "OBJECT_NAME": "ONEWEB-0270",
        "OBJECT_ID": "2021-060X",
        "EPOCH": "2025-11-30T01:42:56.251296",
        "MEAN_MOTION": 13.16595716,
        "ECCENTRICITY": 0.00022,
        "INCLINATION": 87.9035,
        "RA_OF_ASC_NODE": 268.4321,
        "ARG_OF_PERICENTER": 70.1195,
        "MEAN_ANOMALY": 290.0173,
        "EPHEMERIS_TYPE": 0,
        "CLASSIFICATION_TYPE": "U",
        "NORAD_CAT_ID": 48988,
        "ELEMENT_SET_NO": 999,
        "REV_AT_EPOCH": 21346,
        "BSTAR": -0.00013904,
        "MEAN_MOTION_DOT": -4e-07,
        "MEAN_MOTION_DDOT": 0,
        "norad_id": 48988,
        "name": "ONEWEB-0270",
        "group": "active",
        "longitude_deg": NaN,
        "latitude_deg": NaN,
        "alt_km": NaN,
        "orbit_class": "HEO",
        "timestamp": "2025-11-30T09:33:02.518235+00:00"
      },
      "geometry": {
        "type": "Point",
        "coordinates": [
          NaN,
          NaN
        ]
      }
    },
    {
      "type": "Feature",
      "properties": {
        "OBJECT_NAME": "ONEWEB-0271",
        "OBJECT_ID": "2021-060Y",
        "EPOCH": "2025-11-29T19:56:23.658432",
        "MEAN_MOTION": 13.16594383,
        "ECCENTRICITY": 0.0002088,
        "INCLINATION": 87.9041,
        "RA_OF_ASC_NODE": 268.4685,
        "ARG_OF_PERICENTER": 76.7638,
        "MEAN_ANOMALY": 283.3725,
        "EPHEMERIS_TYPE": 0,
        "CLASSIFICATION_TYPE": "U",
        "NORAD_CAT_ID": 48989,
        "ELEMENT_SET_NO": 999,
        "REV_AT_EPOCH": 21343,
        "BSTAR": -3.8439e-06,
        "MEAN_MOTION_DOT": 1.1e-07,
        "MEAN_MOTION_DDOT": 0,
        "norad_id": 48989,
        "name": "ONEWEB-0271",
        "group": "active",
        "longitude_deg": NaN,
        "latitude_deg": NaN,
        "alt_km": NaN,
        "orbit_class": "HEO",
        "timestamp": "2025-11-30T09:33:02.518241+00:00"
      },
      "geometry": {
        "type": "Point",
        "coordinates": [
          NaN,
          NaN
        ]
      }
    },
    {
      "type": "Feature",
      "properties": {
        "OBJECT_NAME": "ONEWEB-0272",
        "OBJECT_ID": "2021-060Z",
        "EPOCH": "2025-11-30T01:56:37.646592",
        "MEAN_MOTION": 13.16585247,
        "ECCENTRICITY": 0.0002082,
        "INCLINATION": 87.9028,
        "RA_OF_ASC_NODE": 268.4355,
        "ARG_OF_PERICENTER": 81.6328,
        "MEAN_ANOMALY": 278.5039,
        "EPHEMERIS_TYPE": 0,
        "CLASSIFICATION_TYPE": "U",
        "NORAD_CAT_ID": 48990,
        "ELEMENT_SET_NO": 999,
        "REV_AT_EPOCH": 21341,
        "BSTAR": -0.0028257,
        "MEAN_MOTION_DOT": -1.067e-05,
        "MEAN_MOTION_DDOT": 0,
        "norad_id": 48990,
        "name": "ONEWEB-0272",
        "group": "active",
        "longitude_deg": NaN,
        "latitude_deg": NaN,
        "alt_km": NaN,
        "orbit_class": "HEO",
        "timestamp": "2025-11-30T09:33:02.518249+00:00"
      },
      "geometry": {
        "type": "Point",
        "coordinates": [
          NaN,
          NaN
        ]
      }
    },
    {
      "type": "Feature",
      "properties": {
        "OBJECT_NAME": "ONEWEB-0273",
        "OBJECT_ID": "2021-060AA",
        "EPOCH": "2025-11-30T02:28:32.167776",
        "MEAN_MOTION": 13.16595181,
        "ECCENTRICITY": 0.0001943,
        "INCLINATION": 87.9036,
        "RA_OF_ASC_NODE": 268.4255,
        "ARG_OF_PERICENTER": 73.2783,
        "MEAN_ANOMALY": 286.8561,
        "EPHEMERIS_TYPE": 0,
        "CLASSIFICATION_TYPE": "U",
        "NORAD_CAT_ID": 48991,
        "ELEMENT_SET_NO": 999,
        "REV_AT_EPOCH": 21339,
        "BSTAR": -0.00013477,
        "MEAN_MOTION_DOT": -3.9e-07,
        "MEAN_MOTION_DDOT": 0,
        "norad_id": 48991,
        "name": "ONEWEB-0273",
        "group": "active",
        "longitude_deg": NaN,
        "latitude_deg": NaN,
        "alt_km": NaN,
        "orbit_class": "HEO",
        "timestamp": "2025-11-30T09:33:02.518255+00:00"
      },
      "geometry": {
        "type": "Point",
        "coordinates": [
          NaN,
          NaN
        ]
      }
    },
    {
      "type": "Feature",
      "properties": {
        "OBJECT_NAME": "ONEWEB-0274",
        "OBJECT_ID": "2021-060AB",
        "EPOCH": "2025-11-30T01:15:34.333344",
        "MEAN_MOTION": 13.16593748,
        "ECCENTRICITY": 0.0001959,
        "INCLINATION": 87.9025,
        "RA_OF_ASC_NODE": 268.4598,
        "ARG_OF_PERICENTER": 87.1023,
        "MEAN_ANOMALY": 273.0332,
        "EPHEMERIS_TYPE": 0,
        "CLASSIFICATION_TYPE": "U",
        "NORAD_CAT_ID": 48992,
        "ELEMENT_SET_NO": 999,
        "REV_AT_EPOCH": 21342,
        "BSTAR": 8.3623e-05,
        "MEAN_MOTION_DOT": 4.5e-07,
        "MEAN_MOTION_DDOT": 0,
        "norad_id": 48992,
        "name": "ONEWEB-0274",
        "group": "active",
        "longitude_deg": NaN,
        "latitude_deg": NaN,
        "alt_km": NaN,
        "orbit_class": "HEO",
        "timestamp": "2025-11-30T09:33:02.518261+00:00"
      },
      "geometry": {
        "type": "Point",
        "coordinates": [
          NaN,
          NaN
        ]
      }
    },
    {
      "type": "Feature",
      "properties": {
        "OBJECT_NAME": "ONEWEB-0275",
        "OBJECT_ID": "2021-060AC",
        "EPOCH": "2025-11-29T21:20:44.439072",
        "MEAN_MOTION": 13.1659325,
        "ECCENTRICITY": 0.0001926,
        "INCLINATION": 87.9037,
        "RA_OF_ASC_NODE": 268.4617,
        "ARG_OF_PERICENTER": 77.8741,
        "MEAN_ANOMALY": 282.2605,
        "EPHEMERIS_TYPE": 0,
        "CLASSIFICATION_TYPE": "U",
        "NORAD_CAT_ID": 48993,
        "ELEMENT_SET_NO": 999,
        "REV_AT_EPOCH": 21333,
        "BSTAR": 5.7784e-05,
        "MEAN_MOTION_DOT": 3.5e-07,
        "MEAN_MOTION_DDOT": 0,
        "norad_id": 48993,
        "name": "ONEWEB-0275",
        "group": "active",
        "longitude_deg": NaN,
        "latitude_deg": NaN,
        "alt_km": NaN,
        "orbit_class": "HEO",
        "timestamp": "2025-11-30T09:33:02.518267+00:00"
      },
      "geometry": {
        "type": "Point",
        "coordinates": [
          NaN,
          NaN
        ]
      }
    }
  ]
}